CTC1_L_00681007-03
1 77989U 26279OW  26070.40841435  .00000000  00000+0  00000-0 0  9999
2 77989  60.0000 180.0000 0000000   0.0000 144.0000  1.86512155    11
CTC1_L_00681007-04
1 77990U 26375JX  26070.40841435  .00000000  00000+0  00000-0 0  9998
2 77990  60.0000 180.0000 0000000   0.0000 180.0000  1.86512155    13
CTC1_L_00681007-05
1 77991U 24547TO  26070.40841435  .00000000  00000+0  00000-0 0  9998
2 77991  60.0000 180.0000 0000000   0.0000 216.0000  1.86512155    14
CTC1_L_00681007-06
1 77992U 25736MW  26070.40841435  .00000000  00000+0  00000-0 0  9990
2 77992  60.0000 180.0000 0000000   0.0000 252.0000  1.86512155    15
CTC1_L_00681007-07
1 77993U 24910MW  26070.40841435  .00000000  00000+0  00000-0 0  9994
2 77993  60.0000 180.0000 0000000   0.0000 288.0000  1.86512155    15
CTC1_L_00681007-08
1 77994U 22763UF  26070.40841435  .00000000  00000+0  00000-0 0  9999
2 77994  60.0000 180.0000 0000000   0.0000 324.0000  1.86512155    17
CTC1_L_00681007-09
1 77995U 23756PV  26070.40841435  .00000000  00000+0  00000-0 0  9993
2 77995  60.0000 180.0000 0000000   0.0000   0.0000  1.86512155    19
CTC1_L_00681007-10
1 77996U 24813Y   26070.40841435  .00000000  00000+0  00000-0 0  9999
2 77996  60.0000 180.0000 0000000   0.0000  36.0000  1.86512155    19
CTC1_L_00681008-01
1 77997U 24487SV  26070.40841435  .00000000  00000+0  00000-0 0  9997
2 77997  60.0000 210.0000 0000000   0.0000  84.0000  1.86512155    17
CTC1_L_00681008-02
1 77998U 24769FB  26070.40841435  .00000000  00000+0  00000-0 0  9991
2 77998  60.0000 210.0000 0000000   0.0000 120.0000  1.86512155    19
CTC1_L_00681008-03
1 77999U 24962EN  26070.40841435  .00000000  00000+0  00000-0 0  9997
2 77999  60.0000 210.0000 0000000   0.0000 156.0000  1.86512155    19
CTC1_L_00681008-04
1 78000U 22140FK  26070.40841435  .00000000  00000+0  00000-0 0  9997
2 78000  60.0000 210.0000 0000000   0.0000 192.0000  1.86512155    13
CTC1_L_00681008-05
1 78001U 24501DP  26070.40841435  .00000000  00000+0  00000-0 0  9991
2 78001  60.0000 210.0000 0000000   0.0000 228.0000  1.86512155    14
CTC1_L_00681008-06
1 78002U 23339QC  26070.40841435  .00000000  00000+0  00000-0 0  9990
2 78002  60.0000 210.0000 0000000   0.0000 264.0000  1.86512155    15
CTC1_L_00681008-07
1 78003U 24339RJ  26070.40841435  .00000000  00000+0  00000-0 0  9992
2 78003  60.0000 210.0000 0000000   0.0000 300.0000  1.86512155    17
CTC1_L_00681008-08
1 78004U 26629HY  26070.40841435  .00000000  00000+0  00000-0 0  9997
2 78004  60.0000 210.0000 0000000   0.0000 336.0000  1.86512155    17
CTC1_L_00681008-09
1 78005U 23722HC  26070.40841435  .00000000  00000+0  00000-0 0  9999
2 78005  60.0000 210.0000 0000000   0.0000  12.0000  1.86512155    19
CTC1_L_00681008-10
1 78006U 25342CD  26070.40841435  .00000000  00000+0  00000-0 0  9990
2 78006  60.0000 210.0000 0000000   0.0000  48.0000  1.86512155    19
CTC1_L_00681009-01
1 78007U 22677YC  26070.40841435  .00000000  00000+0  00000-0 0  9999
2 78007  60.0000 240.0000 0000000   0.0000  96.0000  1.86512155    16
CTC1_L_00681009-02
1 78008U 23481YA  26070.40841435  .00000000  00000+0  00000-0 0  9994
2 78008  60.0000 240.0000 0000000   0.0000 132.0000  1.86512155    18
CTC1_L_00681009-03
1 78009U 22711JQ  26070.40841435  .00000000  00000+0  00000-0 0  9990
2 78009  60.0000 240.0000 0000000   0.0000 168.0000  1.86512155    18
CTC1_L_00681009-04
1 78010U 23081LF  26070.40841435  .00000000  00000+0  00000-0 0  9993
2 78010  60.0000 240.0000 0000000   0.0000 204.0000  1.86512155    11
CTC1_L_00681009-05
1 78011U 22306KI  26070.40841435  .00000000  00000+0  00000-0 0  9993
2 78011  60.0000 240.0000 0000000   0.0000 240.0000  1.86512155    12
CTC1_L_00681009-06
1 78012U 25036I   26070.40841435  .00000000  00000+0  00000-0 0  9997
2 78012  60.0000 240.0000 0000000   0.0000 276.0000  1.86512155    12
CTC1_L_00681009-07
1 78013U 23416PJ  26070.40841435  .00000000  00000+0  00000-0 0  9998
2 78013  60.0000 240.0000 0000000   0.0000 312.0000  1.86512155    14
CTC1_L_00681009-08
1 78014U 23880VL  26070.40841435  .00000000  00000+0  00000-0 0  9994
2 78014  60.0000 240.0000 0000000   0.0000 348.0000  1.86512155    14
CTC1_L_00681009-09
1 78015U 22439HO  26070.40841435  .00000000  00000+0  00000-0 0  9994
2 78015  60.0000 240.0000 0000000   0.0000  24.0000  1.86512155    16
CTC1_L_00681009-10
1 78016U 22630WB  26070.40841435  .00000000  00000+0  00000-0 0  9998
2 78016  60.0000 240.0000 0000000   0.0000  60.0000  1.86512155    17
CTC1_L_00681010-01
1 78017U 24766QB  26070.40841435  .00000000  00000+0  00000-0 0  9991
2 78017  60.0000 270.0000 0000000   0.0000 108.0000  1.86512155    14
CTC1_L_00681010-02
1 78018U 23845ZR  26070.40841435  .00000000  00000+0  00000-0 0  9999
2 78018  60.0000 270.0000 0000000   0.0000 144.0000  1.86512155    15
CTC1_L_00681010-03
1 78019U 25565BL  26070.40841435  .00000000  00000+0  00000-0 0  9991
2 78019  60.0000 270.0000 0000000   0.0000 180.0000  1.86512155    16
CTC1_L_00681010-04
1 78020U 24107SH  26070.40841435  .00000000  00000+0  00000-0 0  9994
2 78020  60.0000 270.0000 0000000   0.0000 216.0000  1.86512155    18
CTC1_L_00681010-05
1 78021U 25075XR  26070.40841435  .00000000  00000+0  00000-0 0  9990
2 78021  60.0000 270.0000 0000000   0.0000 252.0000  1.86512155    19
CTC1_L_00681010-06
1 78022U 25665KW  26070.40841435  .00000000  00000+0  00000-0 0  9996
2 78022  60.0000 270.0000 0000000   0.0000 288.0000  1.86512155    19
CTC1_L_00681010-07
1 78023U 24868JX  26070.40841435  .00000000  00000+0  00000-0 0  9991
2 78023  60.0000 270.0000 0000000   0.0000 324.0000  1.86512155    11
CTC1_L_00681010-08
1 78024U 23989MN  26070.40841435  .00000000  00000+0  00000-0 0  9995
2 78024  60.0000 270.0000 0000000   0.0000   0.0000  1.86512155    13
CTC1_L_00681010-09
1 78025U 22397DS  26070.40841435  .00000000  00000+0  00000-0 0  9998
2 78025  60.0000 270.0000 0000000   0.0000  36.0000  1.86512155    13
CTC1_L_00681010-10
1 78026U 23964PB  26070.40841435  .00000000  00000+0  00000-0 0  9990
2 78026  60.0000 270.0000 0000000   0.0000  72.0000  1.86512155    14
CTC1_L_00681011-01
1 78027U 22111GD  26070.40841435  .00000000  00000+0  00000-0 0  9994
2 78027  60.0000 300.0000 0000000   0.0000 120.0000  1.86512155    13
CTC1_L_00681011-02
1 78028U 26810UF  26070.40841435  .00000000  00000+0  00000-0 0  9995
2 78028  60.0000 300.0000 0000000   0.0000 156.0000  1.86512155    13
CTC1_L_00681011-03
1 78029U 23808NZ  26070.40841435  .00000000  00000+0  00000-0 0  9990
2 78029  60.0000 300.0000 0000000   0.0000 192.0000  1.86512155    14
CTC1_L_00681011-04
1 78030U 23300MS  26070.40841435  .00000000  00000+0  00000-0 0  9999
2 78030  60.0000 300.0000 0000000   0.0000 228.0000  1.86512155    16
CTC1_L_00681011-05
1 78031U 23895RK  26070.40841435  .00000000  00000+0  00000-0 0  9999
2 78031  60.0000 300.0000 0000000   0.0000 264.0000  1.86512155    17
CTC1_L_00681011-06
1 78032U 22231EC  26070.40841435  .00000000  00000+0  00000-0 0  9993
2 78032  60.0000 300.0000 0000000   0.0000 300.0000  1.86512155    19
CTC1_L_00681011-07
1 78033U 22938QO  26070.40841435  .00000000  00000+0  00000-0 0  9998
2 78033  60.0000 300.0000 0000000   0.0000 336.0000  1.86512155    19
CTC1_L_00681011-08
1 78034U 26756GY  26070.40841435  .00000000  00000+0  00000-0 0  9991
2 78034  60.0000 300.0000 0000000   0.0000  12.0000  1.86512155    11
CTC1_L_00681011-09
1 78035U 26714HF  26070.40841435  .00000000  00000+0  00000-0 0  9996
2 78035  60.0000 300.0000 0000000   0.0000  48.0000  1.86512155    11
CTC1_L_00681011-10
1 78036U 25019RV  26070.40841435  .00000000  00000+0  00000-0 0  9994
2 78036  60.0000 300.0000 0000000   0.0000  84.0000  1.86512155    12
CTC1_L_00681012-01
1 78037U 26234NV  26070.40841435  .00000000  00000+0  00000-0 0  9995
2 78037  60.0000 330.0000 0000000   0.0000 132.0000  1.86512155    10
CTC1_L_00681012-02
1 78038U 24225OV  26070.40841435  .00000000  00000+0  00000-0 0  9994
2 78038  60.0000 330.0000 0000000   0.0000 168.0000  1.86512155    10
CTC1_L_00681012-03
1 78039U 23546E   26070.40841435  .00000000  00000+0  00000-0 0  9990
2 78039  60.0000 330.0000 0000000   0.0000 204.0000  1.86512155    12
CTC1_L_00681012-04
1 78040U 25700UK  26070.40841435  .00000000  00000+0  00000-0 0  9996
2 78040  60.0000 330.0000 0000000   0.0000 240.0000  1.86512155    14
CTC1_L_00681012-05
1 78041U 22603UV  26070.40841435  .00000000  00000+0  00000-0 0  9996
2 78041  60.0000 330.0000 0000000   0.0000 276.0000  1.86512155    14
CTC1_L_00681012-06
1 78042U 22795QG  26070.40841435  .00000000  00000+0  00000-0 0  9999
2 78042  60.0000 330.0000 0000000   0.0000 312.0000  1.86512155    16
CTC1_L_00681012-07
1 78043U 23482QC  26070.40841435  .00000000  00000+0  00000-0 0  9994
2 78043  60.0000 330.0000 0000000   0.0000 348.0000  1.86512155    16
CTC1_L_00681012-08
1 78044U 23696YS  26070.40841435  .00000000  00000+0  00000-0 0  9992
2 78044  60.0000 330.0000 0000000   0.0000  24.0000  1.86512155    18
CTC1_L_00681012-09
1 78045U 24151YB  26070.40841435  .00000000  00000+0  00000-0 0  9990
2 78045  60.0000 330.0000 0000000   0.0000  60.0000  1.86512155    19
CTC1_L_00681012-10
1 78046U 22368GH  26070.40841435  .00000000  00000+0  00000-0 0  9999
2 78046  60.0000 330.0000 0000000   0.0000  96.0000  1.86512155    19
